[{"OBJECT_NAME":"CENTISPACE-1 S6","OBJECT_ID":"2022-126B","EPOCH":"2026-03-09T21:15:48.172608","MEAN_MOTION":14.62129457,"ECCENTRICITY":0.00134492,"INCLINATION":54.9982,"RA_OF_ASC_NODE":251.6889,"ARG_OF_PERICENTER":194.8443,"MEAN_ANOMALY":165.2158,"EPHEMERIS_TYPE":0,"CLASSIFICATION_TYPE":"U","NORAD_CAT_ID":54021,"ELEMENT_SET_NO":999,"REV_AT_EPOCH":18247,"BSTAR":0.0002040301,"MEAN_MOTION_DOT":8.46e-6,"MEAN_MOTION_DDOT":0},{"OBJECT_NAME":"CZ-4B DEB","OBJECT_ID":"1999-057EV","EPOCH":"2026-03-09T06:01:08.643072","MEAN_MOTION":14.74646443,"ECCENTRICITY":0.00590955,"INCLINATION":98.381,"RA_OF_ASC_NODE":162.1038,"ARG_OF_PERICENTER":333.035,"MEAN_ANOMALY":86.1586,"EPHEMERIS_TYPE":0,"CLASSIFICATION_TYPE":"U","NORAD_CAT_ID":26259,"ELEMENT_SET_NO":999,"REV_AT_EPOCH":36947,"BSTAR":0.0011862595,"MEAN_MOTION_DOT":8.089e-5,"MEAN_MOTION_DDOT":0}]
